IRIDIUM 68 [+]          
1 25291U 98021G   18033.34831675  .00000188  00000-0  60033-4 0  9994
2 25291  86.3987 127.8670 0002097  98.4241 261.7193 14.34222842 37998
IRIDIUM 69 [-]          
1 25319U 98026A   18033.39702841  .00000085  00000-0  21350-4 0  9992
2 25319  86.4032 148.9286 0001395 162.1204 198.0043 14.38713388 36131
IRIDIUM 71 [-]          
1 25320U 98026B   18033.39062055  .00000101  00000-0  26354-4 0  9998
2 25320  86.4013 144.7118 0001166  25.5284 334.5972 14.39131593 36575
IRIDIUM 70 [+]          
1 25342U 98032A   18033.37359014  .00000179  00000-0  56897-4 0  9991
2 25342  86.3991 128.1095 0002110  93.4712 266.6725 14.34219426 32094
IRIDIUM 72 [+]          
1 25343U 98032B   18033.36090509  .00000176  00000-0  55876-4 0  9995
2 25343  86.3986 127.7115 0002120  95.9515 264.1922 14.34219608 32090
IRIDIUM 73 [-]          
1 25344U 98032C   18033.57710004  .00000121  00000-0  26384-4 0  9990
2 25344  86.4425 105.6257 0002464  80.0431 280.1051 14.49092710 40915
IRIDIUM 75 [+]          
1 25346U 98032E   18033.29747956  .00000202  00000-0  65236-4 0  9996
2 25346  86.3988 127.9985 0002105  97.1514 262.9921 14.34215534 32659
IRIDIUM 3 [P]           
1 25431U 98048A   18033.36597763  .01748755 -11525-5  56910-3 0  9996
2 25431  86.3704 158.4398 0172707 310.5981  48.0382 15.99570602 18754
IRIDIUM 76 [+]          
1 25432U 98048B   18033.44054974  .00000128  00000-0  38821-4 0  9994
2 25432  86.4000 159.2554 0002226  93.4868 266.6582 14.34216846 18594
IRIDIUM 82 [-]          
1 25467U 98051A   18033.57310822  .00000615  00000-0  44638-4 0  9991
2 25467  86.3999 275.3901 0179900 290.2319  67.9644 14.89716032 21133
IRIDIUM 81 [+]          
1 25468U 98051B   18033.19570362  .00000171  00000-0  49426-4 0  9994
2 25468  86.4233 285.6718 0002301  86.6548 273.4913 14.38611425 15913
IRIDIUM 80 [+]          
1 25469U 98051C   18033.21559163  .00000149  00000-0  46201-4 0  9997
2 25469  86.3961 285.9208 0001450  95.7085  15.2468 14.34221325 15806
IRIDIUM 2 [-]           
1 25527U 98066A   18033.55736812  .00000942  00000-0  45530-4 0  9998
2 25527  85.5283 256.1921 0007965 337.9732  22.1165 15.17162629 52791
IRIDIUM 86 [+]          
1 25528U 98066B   18033.13990132 -.00000024  00000-0 -15681-4 0  9997
2 25528  86.3935 253.6250 0001358  56.4484 303.6841 14.34220047 12329
IRIDIUM 84 [+]          
1 25530U 98066D   18033.52046096 -.00000031  00000-0 -18297-4 0  9998
2 25530  86.3936 253.6345 0001979  83.6418 276.5003 14.34220179 10014
IRIDIUM 83 [+]          
1 25531U 98066E   18033.27310341 -.00000027  00000-0 -16830-4 0  9994
2 25531  86.3940 253.8729 0001966  85.1845 274.9575 14.34218771  7337
IRIDIUM 20 [+]          
1 25577U 98074A   18033.40245273  .00000120  00000-0  35908-4 0  9998
2 25577  86.3999 159.1899 0002044  96.1104 264.0325 14.34217294  1432
IRIDIUM 11 [+]          
1 25578U 98074B   18032.75483385  .00000027  00000-0  31513-5 0  9999
2 25578  86.3999 159.6721 0003248  96.8672  32.0982 14.24871382 10307
IRIDIUM 14 [+]          
1 25777U 99032A   18033.31650714  .00000174  00000-0  55103-4 0  9993
2 25777  86.3987 127.8183 0002087  94.7402 265.4032 14.34219310987660
IRIDIUM 21 [+]          
1 25778U 99032B   18033.35456476  .00000178  00000-0  56587-4 0  9998
2 25778  86.3986 127.8181 0002296  97.6100 262.5356 14.34219474981108
IRIDIUM 91 [+]          
1 27372U 02005A   18033.46284864  .00000015  00000-0 -17954-5 0  9993
2 27372  86.3987 190.9271 0002162  82.2964 277.8477 14.34217623844635
IRIDIUM 90 [B]          
1 27373U 02005B   18033.14406010 -.00000006  00000-0 -78477-5 0  9996
2 27373  86.4450 253.9201 0001984  79.6383 280.5042 14.42949683844514
IRIDIUM 94 [+]          
1 27374U 02005C   18033.44709163  .00000138  00000-0  42079-4 0  9997
2 27374  86.4001 159.5065 0002380  83.2625 343.7200 14.34220277848959
IRIDIUM 95 [+]          
1 27375U 02005D   18033.50099906 -.00000049  00000-0 -24580-4 0  9992
2 27375  86.3983 190.9248 0002752  82.9317 277.2192 14.34212111843928
IRIDIUM 96 [P]          
1 27376U 02005E   18033.54337934  .00020486 -10603-5  23177-3 0  9994
2 27376  86.3803 220.3136 0319620   1.4597 358.7497 15.18968940849486
IRIDIUM 97 [+]          
1 27450U 02031A   18033.54240210 -.00000063  00000-0 -29528-4 0  9998
2 27450  86.3955 222.6013 0001942  82.4643 277.6773 14.34214439823248
IRIDIUM 98 [+]          
1 27451U 02031B   18033.20045634  .00000159  00000-0  49551-4 0  9997
2 27451  86.3955 286.0083 0001667  76.1288 284.0093 14.34221476824279
